CCSDS_OMM_VERS = 2.0
CREATION_DATE  = 
ORIGINATOR     = 

OBJECT_NAME    = STARLINK-34774
OBJECT_ID      = 2025-263A
CENTER_NAME    = EARTH
REF_FRAME      = TEME
TIME_SYSTEM    = UTC
MEAN_ELEMENT_THEORY = SGP/SGP4

EPOCH          = 2025-12-11T04:00:01.998720
MEAN_MOTION    = 15.40658242
ECCENTRICITY   = .0001995
INCLINATION    = 43.0006
RA_OF_ASC_NODE = 134.4749
ARG_OF_PERICENTER = 272.7815
MEAN_ANOMALY   = 175.6229

EPHEMERIS_TYPE = 0
CLASSIFICATION_TYPE = U
NORAD_CAT_ID   = 66485
ELEMENT_SET_NO = 999
REV_AT_EPOCH   = 538
BSTAR          = .11094E-2
MEAN_MOTION_DOT = .46257E-3
MEAN_MOTION_DDOT = 0

CCSDS_OMM_VERS = 2.0
CREATION_DATE  = 
ORIGINATOR     = 

OBJECT_NAME    = STARLINK-34844
OBJECT_ID      = 2025-263B
CENTER_NAME    = EARTH
REF_FRAME      = TEME
TIME_SYSTEM    = UTC
MEAN_ELEMENT_THEORY = SGP/SGP4

EPOCH          = 2025-12-11T04:00:01.998720
MEAN_MOTION    = 15.50607493
ECCENTRICITY   = .0001575
INCLINATION    = 43.0009
RA_OF_ASC_NODE = 134.3668
ARG_OF_PERICENTER = 262.9964
MEAN_ANOMALY   = 229.4653

EPHEMERIS_TYPE = 0
CLASSIFICATION_TYPE = U
NORAD_CAT_ID   = 66486
ELEMENT_SET_NO = 999
REV_AT_EPOCH   = 533
BSTAR          = -.16102E-2
MEAN_MOTION_DOT = -.93775E-3
MEAN_MOTION_DDOT = 0

CCSDS_OMM_VERS = 2.0
CREATION_DATE  = 
ORIGINATOR     = 

OBJECT_NAME    = STARLINK-34733
OBJECT_ID      = 2025-263C
CENTER_NAME    = EARTH
REF_FRAME      = TEME
TIME_SYSTEM    = UTC
MEAN_ELEMENT_THEORY = SGP/SGP4

EPOCH          = 2025-12-10T22:00:03.000096
MEAN_MOTION    = 15.50768653
ECCENTRICITY   = .00015446
INCLINATION    = 43.0006
RA_OF_ASC_NODE = 135.8267
ARG_OF_PERICENTER = 271.7838
MEAN_ANOMALY   = 265.4400

EPHEMERIS_TYPE = 0
CLASSIFICATION_TYPE = U
NORAD_CAT_ID   = 66487
ELEMENT_SET_NO = 999
REV_AT_EPOCH   = 534
BSTAR          = -.10172046E-1
MEAN_MOTION_DOT = -.560056E-2
MEAN_MOTION_DDOT = 0

CCSDS_OMM_VERS = 2.0
CREATION_DATE  = 
ORIGINATOR     = 

OBJECT_NAME    = STARLINK-35515
OBJECT_ID      = 2025-263D
CENTER_NAME    = EARTH
REF_FRAME      = TEME
TIME_SYSTEM    = UTC
MEAN_ELEMENT_THEORY = SGP/SGP4

EPOCH          = 2025-12-11T04:00:01.998720
MEAN_MOTION    = 15.50623967
ECCENTRICITY   = .0001651
INCLINATION    = 43.0009
RA_OF_ASC_NODE = 134.3577
ARG_OF_PERICENTER = 263.6517
MEAN_ANOMALY   = 232.6397

EPHEMERIS_TYPE = 0
CLASSIFICATION_TYPE = U
NORAD_CAT_ID   = 66488
ELEMENT_SET_NO = 999
REV_AT_EPOCH   = 538
BSTAR          = -.20977E-2
MEAN_MOTION_DOT = -.121707E-2
MEAN_MOTION_DDOT = 0

CCSDS_OMM_VERS = 2.0
CREATION_DATE  = 
ORIGINATOR     = 

OBJECT_NAME    = STARLINK-35696
OBJECT_ID      = 2025-263E
CENTER_NAME    = EARTH
REF_FRAME      = TEME
TIME_SYSTEM    = UTC
MEAN_ELEMENT_THEORY = SGP/SGP4

EPOCH          = 2025-12-11T04:00:01.998720
MEAN_MOTION    = 15.50612008
ECCENTRICITY   = .0001568
INCLINATION    = 43.0008
RA_OF_ASC_NODE = 134.3524
ARG_OF_PERICENTER = 260.9115
MEAN_ANOMALY   = 237.3033

EPHEMERIS_TYPE = 0
CLASSIFICATION_TYPE = U
NORAD_CAT_ID   = 66489
ELEMENT_SET_NO = 999
REV_AT_EPOCH   = 538
BSTAR          = -.18407E-2
MEAN_MOTION_DOT = -.106992E-2
MEAN_MOTION_DDOT = 0

CCSDS_OMM_VERS = 2.0
CREATION_DATE  = 
ORIGINATOR     = 

OBJECT_NAME    = STARLINK-35693
OBJECT_ID      = 2025-263F
CENTER_NAME    = EARTH
REF_FRAME      = TEME
TIME_SYSTEM    = UTC
MEAN_ELEMENT_THEORY = SGP/SGP4

EPOCH          = 2025-12-11T04:00:01.998720
MEAN_MOTION    = 15.45411024
ECCENTRICITY   = .0001484
INCLINATION    = 43.0008
RA_OF_ASC_NODE = 134.3751
ARG_OF_PERICENTER = 277.5284
MEAN_ANOMALY   = 211.8397

EPHEMERIS_TYPE = 0
CLASSIFICATION_TYPE = U
NORAD_CAT_ID   = 66490
ELEMENT_SET_NO = 999
REV_AT_EPOCH   = 538
BSTAR          = -.4804E-1
MEAN_MOTION_DOT = -.2087106E-1
MEAN_MOTION_DDOT = 0

CCSDS_OMM_VERS = 2.0
CREATION_DATE  = 
ORIGINATOR     = 

OBJECT_NAME    = STARLINK-35663
OBJECT_ID      = 2025-263G
CENTER_NAME    = EARTH
REF_FRAME      = TEME
TIME_SYSTEM    = UTC
MEAN_ELEMENT_THEORY = SGP/SGP4

EPOCH          = 2025-12-11T04:00:01.998720
MEAN_MOTION    = 15.50611939
ECCENTRICITY   = .000158
INCLINATION    = 43.0008
RA_OF_ASC_NODE = 134.3378
ARG_OF_PERICENTER = 257.3384
MEAN_ANOMALY   = 246.6227

EPHEMERIS_TYPE = 0
CLASSIFICATION_TYPE = U
NORAD_CAT_ID   = 66491
ELEMENT_SET_NO = 999
REV_AT_EPOCH   = 538
BSTAR          = -.1727E-2
MEAN_MOTION_DOT = -.100483E-2
MEAN_MOTION_DDOT = 0

CCSDS_OMM_VERS = 2.0
CREATION_DATE  = 
ORIGINATOR     = 

OBJECT_NAME    = STARLINK-35673
OBJECT_ID      = 2025-263H
CENTER_NAME    = EARTH
REF_FRAME      = TEME
TIME_SYSTEM    = UTC
MEAN_ELEMENT_THEORY = SGP/SGP4

EPOCH          = 2025-12-11T04:00:01.998720
MEAN_MOTION    = 15.41088902
ECCENTRICITY   = .0001683
INCLINATION    = 43.0010
RA_OF_ASC_NODE = 134.4133
ARG_OF_PERICENTER = 269.4997
MEAN_ANOMALY   = 203.6190

EPHEMERIS_TYPE = 0
CLASSIFICATION_TYPE = U
NORAD_CAT_ID   = 66492
ELEMENT_SET_NO = 999
REV_AT_EPOCH   = 538
BSTAR          = -.16222E-1
MEAN_MOTION_DOT = -.640075E-2
MEAN_MOTION_DDOT = 0

CCSDS_OMM_VERS = 2.0
CREATION_DATE  = 
ORIGINATOR     = 

OBJECT_NAME    = STARLINK-35597
OBJECT_ID      = 2025-263J
CENTER_NAME    = EARTH
REF_FRAME      = TEME
TIME_SYSTEM    = UTC
MEAN_ELEMENT_THEORY = SGP/SGP4

EPOCH          = 2025-12-11T04:00:01.998720
MEAN_MOTION    = 15.50617937
ECCENTRICITY   = .0001596
INCLINATION    = 43.0008
RA_OF_ASC_NODE = 134.3279
ARG_OF_PERICENTER = 261.3566
MEAN_ANOMALY   = 246.4416

EPHEMERIS_TYPE = 0
CLASSIFICATION_TYPE = U
NORAD_CAT_ID   = 66493
ELEMENT_SET_NO = 999
REV_AT_EPOCH   = 538
BSTAR          = -.19339E-2
MEAN_MOTION_DOT = -.112337E-2
MEAN_MOTION_DDOT = 0

CCSDS_OMM_VERS = 2.0
CREATION_DATE  = 
ORIGINATOR     = 

OBJECT_NAME    = STARLINK-35689
OBJECT_ID      = 2025-263K
CENTER_NAME    = EARTH
REF_FRAME      = TEME
TIME_SYSTEM    = UTC
MEAN_ELEMENT_THEORY = SGP/SGP4

EPOCH          = 2025-12-11T04:00:01.998720
MEAN_MOTION    = 15.50607631
ECCENTRICITY   = .0001523
INCLINATION    = 43.0008
RA_OF_ASC_NODE = 134.3428
ARG_OF_PERICENTER = 257.2428
MEAN_ANOMALY   = 244.8063

EPHEMERIS_TYPE = 0
CLASSIFICATION_TYPE = U
NORAD_CAT_ID   = 66494
ELEMENT_SET_NO = 999
REV_AT_EPOCH   = 538
BSTAR          = -.16474E-2
MEAN_MOTION_DOT = -.95911E-3
MEAN_MOTION_DDOT = 0

CCSDS_OMM_VERS = 2.0
CREATION_DATE  = 
ORIGINATOR     = 

OBJECT_NAME    = STARLINK-35832
OBJECT_ID      = 2025-263L
CENTER_NAME    = EARTH
REF_FRAME      = TEME
TIME_SYSTEM    = UTC
MEAN_ELEMENT_THEORY = SGP/SGP4

EPOCH          = 2025-12-11T04:00:01.998720
MEAN_MOTION    = 15.50614920
ECCENTRICITY   = .0001586
INCLINATION    = 43.0008
RA_OF_ASC_NODE = 134.3230
ARG_OF_PERICENTER = 257.3938
MEAN_ANOMALY   = 252.3200

EPHEMERIS_TYPE = 0
CLASSIFICATION_TYPE = U
NORAD_CAT_ID   = 66495
ELEMENT_SET_NO = 999
REV_AT_EPOCH   = 538
BSTAR          = -.18344E-2
MEAN_MOTION_DOT = -.106639E-2
MEAN_MOTION_DDOT = 0

CCSDS_OMM_VERS = 2.0
CREATION_DATE  = 
ORIGINATOR     = 

OBJECT_NAME    = STARLINK-35909
OBJECT_ID      = 2025-263M
CENTER_NAME    = EARTH
REF_FRAME      = TEME
TIME_SYSTEM    = UTC
MEAN_ELEMENT_THEORY = SGP/SGP4

EPOCH          = 2025-12-11T04:00:01.998720
MEAN_MOTION    = 15.50611742
ECCENTRICITY   = .0001508
INCLINATION    = 43.0007
RA_OF_ASC_NODE = 134.3179
ARG_OF_PERICENTER = 262.0763
MEAN_ANOMALY   = 249.5565

EPHEMERIS_TYPE = 0
CLASSIFICATION_TYPE = U
NORAD_CAT_ID   = 66496
ELEMENT_SET_NO = 999
REV_AT_EPOCH   = 538
BSTAR          = -.17708E-2
MEAN_MOTION_DOT = -.102989E-2
MEAN_MOTION_DDOT = 0

