STARLINK-34774          
1 66485U 25263A   25345.16668980  .00046257  00000+0  11094-2 0  9990
2 66485  43.0006 134.4749 0001995 272.7815 175.6229 15.40658242  5387
STARLINK-34844          
1 66486U 25263B   25345.16668980 -.00093775  00000+0 -16102-2 0  9995
2 66486  43.0009 134.3668 0001575 262.9964 229.4653 15.50607493  5337
STARLINK-34733          
1 66487U 25263C   25344.91670139 -.00560056  00000+0 -10172-1 0  9998
2 66487  43.0006 135.8267 0001544 271.7838 265.4400 15.50768653  5347
STARLINK-35515          
1 66488U 25263D   25345.16668980 -.00121707  00000+0 -20977-2 0  9999
2 66488  43.0009 134.3577 0001651 263.6517 232.6397 15.50623967  5385
STARLINK-35696          
1 66489U 25263E   25345.16668980 -.00106992  00000+0 -18407-2 0  9994
2 66489  43.0008 134.3524 0001568 260.9115 237.3033 15.50612008  5381
STARLINK-35693          
1 66490U 25263F   25345.16668980 -.02087106  00000+0 -48040-1 0  9998
2 66490  43.0008 134.3751 0001484 277.5284 211.8397 15.45411024  5382
STARLINK-35663          
1 66491U 25263G   25345.16668980 -.00100483  00000+0 -17270-2 0  9993
2 66491  43.0008 134.3378 0001580 257.3384 246.6227 15.50611939  5383
STARLINK-35673          
1 66492U 25263H   25345.16668980 -.00640075  00000+0 -16222-1 0  9995
2 66492  43.0010 134.4133 0001683 269.4997 203.6190 15.41088902  5385
STARLINK-35597          
1 66493U 25263J   25345.16668980 -.00112337  00000+0 -19339-2 0  9994
2 66493  43.0008 134.3279 0001596 261.3566 246.4416 15.50617937  5381
STARLINK-35689          
1 66494U 25263K   25345.16668980 -.00095911  00000+0 -16474-2 0  9990
2 66494  43.0008 134.3428 0001523 257.2428 244.8063 15.50607631  5389
STARLINK-35832          
1 66495U 25263L   25345.16668980 -.00106639  00000+0 -18344-2 0  9999
2 66495  43.0008 134.3230 0001586 257.3938 252.3200 15.50614920  5383
STARLINK-35909          
1 66496U 25263M   25345.16668980 -.00102989  00000+0 -17708-2 0  9997
2 66496  43.0007 134.3179 0001508 262.0763 249.5565 15.50611742  5389
